{"type": "FeatureCollection", "features": [{"type": "Feature", "properties": {"norad_id": 25590, "name": "COSMOS 2361", "group": "musson", "lat": -44.3105782193509, "lon": -28.413601220560775, "alt_km": 987.5805557226122, "timestamp": "2025-12-20T05:41:50.300172+00:00", "meta": {"OBJECT_NAME": "COSMOS 2361", "OBJECT_ID": "1998-076A", "EPOCH": "2025-12-19T23:00:28.361376", "MEAN_MOTION": 13.73218354, "ECCENTRICITY": 0.00301559, "INCLINATION": 82.9341, "RA_OF_ASC_NODE": 338.7468, "ARG_OF_PERICENTER": 244.6682, "MEAN_ANOMALY": 133.22, "EPHEMERIS_TYPE": 0, "CLASSIFICATION_TYPE": "U", "NORAD_CAT_ID": 25590, "ELEMENT_SET_NO": 999, "REV_AT_EPOCH": 35210, "BSTAR": 4.2043401e-05, "MEAN_MOTION_DOT": 5.4e-07, "MEAN_MOTION_DDOT": 0}, "tle": {"line1": "1 25590U 98076A   25353.95866159  .00000054  00000+0  42043-4 0  9993", "line2": "2 25590  82.9341 338.7468 0030155 244.6682 133.2200 13.73218354352104"}}, "geometry": {"type": "Point", "coordinates": [-28.413601220560775, -44.3105782193509]}}, {"type": "Feature", "properties": {"norad_id": 26818, "name": "COSMOS 2378", "group": "musson", "lat": 51.66204109747803, "lon": 3.1976289197711676, "alt_km": 995.902449682384, "timestamp": "2025-12-20T05:41:50.300193+00:00", "meta": {"OBJECT_NAME": "COSMOS 2378", "OBJECT_ID": "2001-023A", "EPOCH": "2025-12-19T10:45:28.864800", "MEAN_MOTION": 13.74142545, "ECCENTRICITY": 0.0032813, "INCLINATION": 82.927, "RA_OF_ASC_NODE": 354.7502, "ARG_OF_PERICENTER": 186.0025, "MEAN_ANOMALY": 284.9718, "EPHEMERIS_TYPE": 0, "CLASSIFICATION_TYPE": "U", "NORAD_CAT_ID": 26818, "ELEMENT_SET_NO": 999, "REV_AT_EPOCH": 23015, "BSTAR": 3.5693e-05, "MEAN_MOTION_DOT": 4.9e-07, "MEAN_MOTION_DDOT": 0}, "tle": {"line1": "1 26818U 01023A   25353.44825075  .00000049  00000+0  35693-4 0  9996", "line2": "2 26818  82.9270 354.7502 0032813 186.0025 284.9718 13.74142545230156"}}, "geometry": {"type": "Point", "coordinates": [3.1976289197711676, 51.66204109747803]}}, {"type": "Feature", "properties": {"norad_id": 27436, "name": "COSMOS 2389", "group": "musson", "lat": -72.327508170287, "lon": -81.4173050165211, "alt_km": 1002.4997761408831, "timestamp": "2025-12-20T05:41:50.300206+00:00", "meta": {"OBJECT_NAME": "COSMOS 2389", "OBJECT_ID": "2002-026A", "EPOCH": "2025-12-19T21:35:03.860736", "MEAN_MOTION": 13.75155415, "ECCENTRICITY": 0.00473688, "INCLINATION": 82.9508, "RA_OF_ASC_NODE": 301.6845, "ARG_OF_PERICENTER": 41.2545, "MEAN_ANOMALY": 12.9914, "EPHEMERIS_TYPE": 0, "CLASSIFICATION_TYPE": "U", "NORAD_CAT_ID": 27436, "ELEMENT_SET_NO": 999, "REV_AT_EPOCH": 18247, "BSTAR": 3.2199124e-05, "MEAN_MOTION_DOT": 4.6e-07, "MEAN_MOTION_DDOT": 0}, "tle": {"line1": "1 27436U 02026A   25353.89935024  .00000046  00000+0  32199-4 0  9997", "line2": "2 27436  82.9508 301.6845 0047368  41.2545  12.9914 13.75155415182477"}}, "geometry": {"type": "Point", "coordinates": [-81.4173050165211, -72.327508170287]}}, {"type": "Feature", "properties": {"norad_id": 27818, "name": "COSMOS 2398", "group": "musson", "lat": 14.609924452092057, "lon": 85.32450042851103, "alt_km": 984.8785506126251, "timestamp": "2025-12-20T05:41:50.300240+00:00", "meta": {"OBJECT_NAME": "COSMOS 2398", "OBJECT_ID": "2003-023A", "EPOCH": "2025-12-19T20:27:55.410624", "MEAN_MOTION": 13.72386446, "ECCENTRICITY": 0.00327313, "INCLINATION": 82.9484, "RA_OF_ASC_NODE": 267.4568, "ARG_OF_PERICENTER": 92.8147, "MEAN_ANOMALY": 332.5988, "EPHEMERIS_TYPE": 0, "CLASSIFICATION_TYPE": "U", "NORAD_CAT_ID": 27818, "ELEMENT_SET_NO": 999, "REV_AT_EPOCH": 12914, "BSTAR": 5.2249183e-05, "MEAN_MOTION_DOT": 6.3e-07, "MEAN_MOTION_DDOT": 0}, "tle": {"line1": "1 27818U 03023A   25353.85272466  .00000063  00000+0  52249-4 0  9996", "line2": "2 27818  82.9484 267.4568 0032731  92.8147 332.5988 13.72386446129147"}}, "geometry": {"type": "Point", "coordinates": [85.32450042851103, 14.609924452092057]}}, {"type": "Feature", "properties": {"norad_id": 28380, "name": "COSMOS 2407", "group": "musson", "lat": 71.7479574376122, "lon": 5.335997916869092, "alt_km": 961.1129954522721, "timestamp": "2025-12-20T05:41:50.300252+00:00", "meta": {"OBJECT_NAME": "COSMOS 2407", "OBJECT_ID": "2004-028A", "EPOCH": "2025-12-19T20:30:35.407872", "MEAN_MOTION": 13.76314495, "ECCENTRICITY": 0.00400108, "INCLINATION": 82.9599, "RA_OF_ASC_NODE": 207.6249, "ARG_OF_PERICENTER": 35.4572, "MEAN_ANOMALY": 335.2999, "EPHEMERIS_TYPE": 0, "CLASSIFICATION_TYPE": "U", "NORAD_CAT_ID": 28380, "ELEMENT_SET_NO": 999, "REV_AT_EPOCH": 7521, "BSTAR": 6.1812249e-05, "MEAN_MOTION_DOT": 7.6e-07, "MEAN_MOTION_DDOT": 0}, "tle": {"line1": "1 28380U 04028A   25353.85457648  .00000076  00000+0  61812-4 0  9994", "line2": "2 28380  82.9599 207.6249 0040010  35.4572 335.2999 13.76314495 75214"}}, "geometry": {"type": "Point", "coordinates": [5.335997916869092, 71.7479574376122]}}, {"type": "Feature", "properties": {"norad_id": 28521, "name": "COSMOS 2414", "group": "musson", "lat": -37.67740643426315, "lon": 173.50541656452, "alt_km": 970.047257780323, "timestamp": "2025-12-20T05:41:50.300264+00:00", "meta": {"OBJECT_NAME": "COSMOS 2414", "OBJECT_ID": "2005-002A", "EPOCH": "2025-12-19T21:13:48.405792", "MEAN_MOTION": 13.87903877, "ECCENTRICITY": 0.00412423, "INCLINATION": 82.9488, "RA_OF_ASC_NODE": 179.257, "ARG_OF_PERICENTER": 119.7952, "MEAN_ANOMALY": 240.7322, "EPHEMERIS_TYPE": 0, "CLASSIFICATION_TYPE": "U", "NORAD_CAT_ID": 28521, "ELEMENT_SET_NO": 999, "REV_AT_EPOCH": 5894, "BSTAR": 4.4947438e-05, "MEAN_MOTION_DOT": 7e-07, "MEAN_MOTION_DDOT": 0}, "tle": {"line1": "1 28521U 05002A   25353.88458803  .00000070  00000+0  44947-4 0  9995", "line2": "2 28521  82.9488 179.2570 0041242 119.7952 240.7322 13.87903877 58946"}}, "geometry": {"type": "Point", "coordinates": [173.50541656452, -37.67740643426315]}}, {"type": "Feature", "properties": {"norad_id": 32052, "name": "COSMOS 2429", "group": "musson", "lat": 66.04692203402574, "lon": 141.68014216691424, "alt_km": 977.4035596482436, "timestamp": "2025-12-20T05:41:50.300275+00:00", "meta": {"OBJECT_NAME": "COSMOS 2429", "OBJECT_ID": "2007-038A", "EPOCH": "2025-12-19T22:10:04.648224", "MEAN_MOTION": 13.75150119, "ECCENTRICITY": 0.00388312, "INCLINATION": 82.9805, "RA_OF_ASC_NODE": 338.0125, "ARG_OF_PERICENTER": 18.16, "MEAN_ANOMALY": 342.0932, "EPHEMERIS_TYPE": 0, "CLASSIFICATION_TYPE": "U", "NORAD_CAT_ID": 32052, "ELEMENT_SET_NO": 999, "REV_AT_EPOCH": 91701, "BSTAR": 3.813189e-05, "MEAN_MOTION_DOT": 5.2e-07, "MEAN_MOTION_DDOT": 0}, "tle": {"line1": "1 32052U 07038A   25353.92366491  .00000052  00000+0  38132-4 0  9995", "line2": "2 32052  82.9805 338.0125 0038831  18.1600 342.0932 13.75150119917011"}}, "geometry": {"type": "Point", "coordinates": [141.68014216691424, 66.04692203402574]}}, {"type": "Feature", "properties": {"norad_id": 35635, "name": "COSMOS 2454", "group": "musson", "lat": 66.08112312882419, "lon": 179.14880632677148, "alt_km": 908.0625882767299, "timestamp": "2025-12-20T05:41:50.300286+00:00", "meta": {"OBJECT_NAME": "COSMOS 2454", "OBJECT_ID": "2009-039A", "EPOCH": "2025-12-19T22:59:24.223200", "MEAN_MOTION": 13.89929517, "ECCENTRICITY": 0.00202398, "INCLINATION": 82.9555, "RA_OF_ASC_NODE": 163.1731, "ARG_OF_PERICENTER": 54.3996, "MEAN_ANOMALY": 55.0826, "EPHEMERIS_TYPE": 0, "CLASSIFICATION_TYPE": "U", "NORAD_CAT_ID": 35635, "ELEMENT_SET_NO": 999, "REV_AT_EPOCH": 83250, "BSTAR": 3.5968918e-05, "MEAN_MOTION_DOT": 6e-07, "MEAN_MOTION_DDOT": 0}, "tle": {"line1": "1 35635U 09039A   25353.95791925  .00000060  00000+0  35969-4 0  9999", "line2": "2 35635  82.9555 163.1731 0020239  54.3996  55.0826 13.89929517832500"}}, "geometry": {"type": "Point", "coordinates": [179.14880632677148, 66.08112312882419]}}, {"type": "Feature", "properties": {"norad_id": 36519, "name": "COSMOS 2463", "group": "musson", "lat": -24.972571488739824, "lon": 17.90401435425456, "alt_km": 989.6626393923298, "timestamp": "2025-12-20T05:41:50.300296+00:00", "meta": {"OBJECT_NAME": "COSMOS 2463", "OBJECT_ID": "2010-017A", "EPOCH": "2025-12-19T12:50:56.753376", "MEAN_MOTION": 13.71649731, "ECCENTRICITY": 0.0034742, "INCLINATION": 82.9605, "RA_OF_ASC_NODE": 21.7186, "ARG_OF_PERICENTER": 268.4983, "MEAN_ANOMALY": 201.5375, "EPHEMERIS_TYPE": 0, "CLASSIFICATION_TYPE": "U", "NORAD_CAT_ID": 36519, "ELEMENT_SET_NO": 999, "REV_AT_EPOCH": 78330, "BSTAR": 5.2986e-05, "MEAN_MOTION_DOT": 6.3e-07, "MEAN_MOTION_DDOT": 0}, "tle": {"line1": "1 36519U 10017A   25353.53537909  .00000063  00000+0  52986-4 0  9994", "line2": "2 36519  82.9605  21.7186 0034742 268.4983 201.5375 13.71649731783307"}}, "geometry": {"type": "Point", "coordinates": [17.90401435425456, -24.972571488739824]}}]}